*******************************************************************************
JPL/HORIZONS                 225312 (1996 XB27)            2013-Jun-24 13:25:33
Rec #:225312 (+COV)   Soln.date: 2013-Apr-29_15:49:36     # obs: 68 (1996-2009)
 
FK5/J2000.0 helio. ecliptic osc. elements (AU, DAYS, DEG, period=Julian yrs):  
 
  EPOCH=  2452637.5 ! 2002-Dec-29.00 (CT)          Residual RMS= .57995        
   EC= .05807944051850202  QR= 1.119916349115571   TP= 2452534.4969590539      
   OM= 179.5980343477021   W=  57.70987308566528   IN= 2.464695322323464       
   A= 1.188971126962188    MA= 78.30638186895153   ADIST= 1.258025904808804    
   PER= 1.29648            N= .76023369            ANGMOM= .018725498          
   DAN= 1.1493             DDN= 1.2229             L= 237.2839554              
   B= 2.0833563            MOID= .1140860021114349 TP= 2002-Sep-16.9969590539  
   ZAX= .532196  

Physical parameters (KM, SEC, rotational period in hours):
   GM= n.a.                RAD= n.a.               ROTPER= n.a.                
   H= 21.674               G= .150                 B-V= n.a.                   
                           ALBEDO= n.a.            STYP= n.a.                  
 
ASTEROID comments: 
1: soln ref.= JPL#30, OCC=0
2: source=ORB
*******************************************************************************
 

 

*******************************************************************************
Ephemeris / WWW_USER Mon Jun 24 13:25:33 2013 Pasadena, USA      / Horizons    
*******************************************************************************
Target body name: 225312 (1996 XB27)              {source: JPL#30}
Center body name: Solar System Barycenter (0)     {source: DE405}
Center-site name: BODY CENTER
*******************************************************************************
Start time      : A.D. 2027-Oct-04 00:00:00.0000 CT 
Stop  time      : A.D. 2027-Oct-07 00:00:00.0000 CT 
Step-size       : 60 minutes
*******************************************************************************
Center geodetic : 0.00000000,0.00000000,0.0000000 {E-lon(deg),Lat(deg),Alt(km)}
Center cylindric: 0.00000000,0.00000000,0.0000000 {E-lon(deg),Dxy(km),Dz(km)}
Center radii    : (undefined)                                                  
Small perturbers: Ceres, Pallas, Vesta            {source: SB405-CPV-2}
Small body GMs  : 6.32E+01, 1.43E+01, 1.78E+01 km^3/s^2                        
Output units    : KM-S                                                         
Output format   : 01
Reference frame : ICRF/J2000.0                                                 
Output type     : GEOMETRIC cartesian states
Coordinate systm: Ecliptic and Mean Equinox of Reference Epoch                 
*******************************************************************************
Initial FK5/J2000.0 heliocentric ecliptic osculating elements (AU, DAYS, DEG):
  EPOCH=  2452637.5 ! 2002-Dec-29.00 (CT)          Residual RMS= .57995        
   EC= .05807944051850202  QR= 1.119916349115571   TP= 2452534.4969590539      
   OM= 179.5980343477021   W=  57.70987308566528   IN= 2.464695322323464       
Asteroid physical parameters (KM, SEC, rotational period in hours):
   GM= n.a.                RAD= n.a.               ROTPER= n.a.                
   H= 21.674               G= .150                 B-V= n.a.                   
                           ALBEDO= n.a.            STYP= n.a.                  
*******************************************************************************
JDCT 
   X     Y     Z
*******************************************************************************
$$SOE
2461684.583333333 = A.D. 2027-Oct-06 02:00:00.0000 (CT)
   1.829291186325268E+08 -1.460145152943011E+06 -4.715415591337241E+04
2461684.625000000 = A.D. 2027-Oct-06 03:00:00.0000 (CT)
   1.829344062833763E+08 -1.364740578491183E+06 -5.126554752228530E+04
2461684.666666667 = A.D. 2027-Oct-06 04:00:00.0000 (CT)
   1.829396424913197E+08 -1.269335774976039E+06 -5.537692243075177E+04
2461684.708333333 = A.D. 2027-Oct-06 05:00:00.0000 (CT)
   1.829448272589594E+08 -1.173930769242398E+06 -5.948827948371867E+04
2461684.750000000 = A.D. 2027-Oct-06 06:00:00.0000 (CT)
   1.829499605889102E+08 -1.078525588143375E+06 -6.359961752578267E+04
2461684.791666667 = A.D. 2027-Oct-06 07:00:00.0000 (CT)
   1.829550424838006E+08 -9.831202585153959E+05 -6.771093540226661E+04
2461684.833333333 = A.D. 2027-Oct-06 08:00:00.0000 (CT)
   1.829600729462717E+08 -8.877148071906782E+05 -7.182223195868194E+04
2461684.875000000 = A.D. 2027-Oct-06 09:00:00.0000 (CT)
   1.829650519789772E+08 -7.923092610097229E+05 -7.593350604018994E+04
2461684.916666667 = A.D. 2027-Oct-06 10:00:00.0000 (CT)
   1.829699795845842E+08 -6.969036467963243E+05 -8.004475649267896E+04
2461684.958333333 = A.D. 2027-Oct-06 11:00:00.0000 (CT)
   1.829748557657726E+08 -6.014979913700570E+05 -8.415598216222644E+04
2461685.000000000 = A.D. 2027-Oct-06 12:00:00.0000 (CT)
   1.829796805252349E+08 -5.060923215587630E+05 -8.826718189456018E+04
2461685.041666667 = A.D. 2027-Oct-06 13:00:00.0000 (CT)
   1.829844538656768E+08 -4.106866641735635E+05 -9.237835453613603E+04
2461685.083333333 = A.D. 2027-Oct-06 14:00:00.0000 (CT)
   1.829891757898170E+08 -3.152810460213464E+05 -9.648949893359900E+04
2461685.125000000 = A.D. 2027-Oct-06 15:00:00.0000 (CT)
   1.829938463003867E+08 -2.198754939172516E+05 -1.006006139332456E+05
2461685.166666667 = A.D. 2027-Oct-06 16:00:00.0000 (CT)
   1.829984654001302E+08 -1.244700346596847E+05 -1.047116983821005E+05
2461685.208333333 = A.D. 2027-Oct-06 17:00:00.0000 (CT)
   1.830030330918050E+08 -2.906469504280326E+04 -1.088227511273785E+05
2461685.250000000 = A.D. 2027-Oct-06 18:00:00.0000 (CT)
   1.830075493781807E+08  6.634049813099699E+04 -1.129337710159464E+05
2461685.291666667 = A.D. 2027-Oct-06 19:00:00.0000 (CT)
   1.830120142620406E+08  1.617455180761596E+05 -1.170447568954036E+05
2461685.333333333 = A.D. 2027-Oct-06 20:00:00.0000 (CT)
   1.830164277461804E+08  2.571503380111192E+05 -1.211557076135285E+05
2461685.375000000 = A.D. 2027-Oct-06 21:00:00.0000 (CT)
   1.830207898334086E+08  3.525549311463581E+05 -1.252666220177642E+05
2461685.416666667 = A.D. 2027-Oct-06 22:00:00.0000 (CT)
   1.830251005265469E+08  4.479592707090299E+05 -1.293774989562783E+05
2461685.458333333 = A.D. 2027-Oct-06 23:00:00.0000 (CT)
   1.830293598284298E+08  5.433633299305664E+05 -1.334883372774309E+05
2461685.500000000 = A.D. 2027-Oct-07 00:00:00.0000 (CT)
   1.830335677419041E+08  6.387670820341882E+05 -1.375991358292342E+05
